SPAWAR-CAL-O            
1 43766U 18099J   26068.73975788  .00021069  00000+0  69663-3 0  9999
2 43766  97.4452 132.0993 0007239 285.0670  74.9770 15.31356755398280
STARLINK-33991          
1 64122U 25110AC  26068.14438285  .00050042  00000+0  16904-2 0  9993
2 64122  53.1603  28.9602 0001268  89.8434 270.2712 15.30199785 45799
